IRIDIUM 166             
1 43570U 18061B   24038.14220539  .00000085  00000+0  23277-4 0  9995
2 43570  86.3927  56.5755 0001877  96.7519 263.3891 14.34215427289980
IRIDIUM 158             
1 43571U 18061C   24037.55234214  .00000211  00000+0  68430-4 0  9996
2 43571  86.3927  56.8319 0002224  97.8834 262.2614 14.34217620289864
IRIDIUM 165             
1 43572U 18061D   24038.13586074  .00000078  00000+0  20932-4 0  9992
2 43572  86.3929  56.6176 0002226  99.3352 260.8095 14.34217191289972
IRIDIUM 155             
1 43573U 18061E   24038.09780445  .00000091  00000+0  25434-4 0  9993
2 43573  86.3923  56.5449 0001998  87.3821 272.7603 14.34217010289946
IRIDIUM 154             
1 43574U 18061F   24038.49738951  .00000149  00000+0  46058-4 0  9992
2 43574  86.3928  56.4693 0002415  89.3472 270.8000 14.34217880290049
IRIDIUM 163             
1 43575U 18061G   24038.12952377  .00000140  00000+0  42808-4 0  9993
2 43575  86.3926  56.5654 0002263  89.0493 271.0962 14.34216036289968
IRIDIUM 156             
1 43576U 18061H   24038.52274349  .00000429  00000+0  14595-3 0  9995
2 43576  86.3921  56.4078 0002085  95.5113 264.6320 14.34216421290007
IRIDIUM 164             
1 43577U 18061J   24038.50372964  .00000138  00000+0  42040-4 0  9990
2 43577  86.3926  56.4419 0002322  96.8070 263.3390 14.34217461290055
